TDRS 3                  
1 19548U 88091B   26192.76905617 -.00000299  00000+0  00000+0 0  9993
2 19548  12.5834 340.8354 0036993 355.4936 181.0945  1.00263734125635
FLTSATCOM 8 (USA 46)    
1 20253U 89077A   26192.80372917 -.00000369  00000+0  00000+0 0  9997
2 20253  12.4145 351.0132 0003525  68.9755 284.6281  1.00264758260801
SKYNET 4C               
1 20776U 90079A   26192.60704403 -.00000057  00000+0  00000+0 0  9992
2 20776  13.3305 349.6572 0002869 137.0180 234.3093  0.98577098   287
TDRS 5                  
1 21639U 91054B   26193.26240553  .00000080  00000+0  00000+0 0  9994
2 21639  14.0679 353.5896 0007432 257.5972 325.7325  1.00272238127969
TDRS 6                  
1 22314U 93003B   26193.33544411 -.00000300  00000+0  00000+0 0  9995
2 22314  14.1831 356.8693 0008185 183.6383 184.3826  1.00280801122665
UFO 2 (USA 95)          
1 22787U 93056A   26193.14092454  .00000121  00000+0  00000+0 0  9991
2 22787  11.9058   3.4153 0002695   8.6299 357.3694  1.00268970118802
USA 99 (MILSTAR-1 1)    
1 22988U 94009A   26192.64057240 -.00000002  00000+0  00000+0 0  9990
2 22988  17.6619  27.4499 0001626 196.6248 164.5715  0.98720423 33197
UFO 4 (USA 108)         
1 23467U 95003A   26193.27822714 -.00000025  00000+0  00000+0 0  9999
2 23467   9.6739  13.0215 0003151  95.6020  94.0417  1.00275831115203
TDRS 7                  
1 23613U 95035B   26192.90463781 -.00000243  00000+0  00000+0 0  9993
2 23613  13.3668 348.0176 0011599  85.5778 271.1140  1.00274756113494
USA 115 (MILSTAR-1 2)   
1 23712U 95060A   26193.12919797 -.00000207  00000+0  00000+0 0  9999
2 23712  14.0815   3.5566 0006103 123.9331 119.0259  1.00272978 33136
INMARSAT 3-F1           
1 23839U 96020A   26193.23933588  .00000033  00000+0  00000+0 0  9998
2 23839  10.6515  46.4004 0004381  85.1476 123.0907  0.99979676110501
INMARSAT 3-F2           
1 24307U 96053A   26192.94619200 -.00000364  00000+0  00000+0 0  9992
2 24307   9.9110  53.6812 0006414  51.6989 290.1135  0.99993270109162
INMARSAT 3-F3           
1 24674U 96070A   26193.28110556  .00000049  00000+0  00000+0 0  9995
2 24674  10.3708  49.4092 0003524  72.6184 286.2297  0.99994172108155
USA 134                 
1 25019U 97065A   26193.33371243 -.00000069  00000+0  00000+0 0  9995
2 25019  12.8131  21.5291 0002422 333.1618 303.2415  1.00272952 33204
INMARSAT 3-F5           
1 25153U 98006B   26192.98195847 -.00000296  00000+0  00000+0 0  9996
2 25153   9.7465  53.0082 0004317  60.5218 115.8693  1.00274223104148
ABS-6                   
1 25924U 99053A   26193.26865275 -.00000118  00000+0  00000+0 0  9999
2 25924   0.0478 270.8371 0003102 178.9683  96.0530  1.00269246 98098
UFO 10 (USA 146)        
1 25967U 99063A   26193.32544795 -.00000193  00000+0  00000+0 0  9998
2 25967   9.8585  27.0756 0001479 110.2518 247.0991  1.00273081 97596
ASIASTAR                
1 26107U 00016A   26193.08475595 -.00000339  00000+0  00000+0 0  9991
2 26107   9.1851  57.8833 0003691  65.1516 302.4712  1.00272595 96172
USA 149 (DSP 20)        
1 26356U 00024A   26193.17394469  .00000091  00000+0  00000+0 0  9990
2 26356  13.1887  11.6694 0001699 307.5341 228.7679  1.00280855 33160
TDRS 8                  
1 26388U 00034A   26193.05600166 -.00000203  00000+0  00000+0 0  9993
2 26388  12.7217  31.1075 0004179  34.3591 329.4932  1.00272956 95437
NSS-11                  
1 26554U 00059A   26193.25915927  .00000024  00000+0  00000+0 0  9991
2 26554   2.1887  81.0906 0002785  34.8610  83.5007  1.00270100 41546
USA 153                 
1 26575U 00065A   26192.87677818 -.00000330  00000+0  00000+0 0  9993
2 26575  11.6656  35.2112 0002076  58.6832 285.9715  1.00273497 33177
AMC-6                   
1 26580U 00067A   26193.24489377  .00000090  00000+0  00000+0 0  9996
2 26580   0.2136  83.6125 0003816  41.7936 117.8499  1.00271528 94141
USA 157 (MILSTAR-2 2)   
1 26715U 01009A   26193.25044870  .00000104  00000+0  00000+0 0  9995
2 26715  11.5695  19.6027 0040549 179.2508  31.3536  1.00272878 33191
INTELSAT 902 (IS-902)   
1 26900U 01039A   26193.12523779 -.00000287  00000+0  00000+0 0  9993
2 26900   6.1779  71.4773 0004429  36.7964 176.7254  1.00270877 90948
USA 164 (MILSTAR-2 3)   
1 27168U 02001A   26193.21027544  .00000093  00000+0  00000+0 0  9993
2 27168  11.2085  21.7489 0098485   8.9417 354.1119  1.00276003 33219
INTELSAT 904 (IS-904)   
1 27380U 02007A   26192.98646515 -.00000229  00000+0  00000+0 0  9995
2 27380   6.9792  68.8833 0005390  23.6733 160.9889  1.00271421 52019
DIRECTV 5 (TEMPO 1)     
1 27426U 02023A   26193.30739295 -.00000060  00000+0  00000+0 0  9992
2 27426   4.9393  74.9957 0003018  42.4796 173.2757  1.00271057 88377
INTELSAT 905 (IS-905)   
1 27438U 02027A   26193.24489377  .00000089  00000+0  00000+0 0  9995
2 27438   6.8138  69.4945 0003458  44.3064 127.2933  1.00270961 51616
GALAXY 3C (G-3C)        
1 27445U 02030A   26193.30183786 -.00000155  00000+0  00000+0 0  9994
2 27445   3.7957  77.6488 0001496  37.5176 188.8621  1.00270714 46741
INTELSAT 906 (IS-906)   
1 27513U 02041A   26193.18219507  .00000009  00000+0  00000+0 0  9996
2 27513   5.8638  72.6133 0003910  21.1552 326.0360  1.00272531 87276
